start=new Date('2022-02-01T00:00:00.000Z').valueOf();
sats=[{"SEMIMAJOR_AXIS":"6925.347","APOAPSIS":"548.457","BSTAR":"-0.00000471320000","REV_AT_EPOCH":"7092","TLE_LINE1":"1 46747U 20074J   22031.89448550 -.00000352  00000-0 -47132-5 0  9996","EPHEMERIS_TYPE":"0","PERIAPSIS":"545.966","LAUNCH_DATE":"2020-10-24","DECAY_DATE":null,"GP_ID":"195053557","TIME_SYSTEM":"UTC","PERIOD":"95.592","MEAN_MOTION_DDOT":"0.0000000000000","RA_OF_ASC_NODE":"205.4687","RCS_SIZE":"LARGE","NORAD_CAT_ID":"46747","OBJECT_NAME":"STARLINK-1908","CENTER_NAME":"EARTH","COUNTRY_CODE":"US","OBJECT_TYPE":"PAYLOAD","MEAN_MOTION_DOT":"-0.00000352","INCLINATION":"53.0559","MEAN_ELEMENT_THEORY":"SGP4","EPOCH":"2022-01-31T21:28:03.547200","ECCENTRICITY":"0.00017980","MEAN_MOTION":"15.06400662","MEAN_ANOMALY":"283.1387","FILE":"3288814","CLASSIFICATION_TYPE":"U","ELEMENT_SET_NO":"999","OBJECT_ID":"2020-074J","ARG_OF_PERICENTER":"76.9802","REF_FRAME":"TEME","TLE_LINE2":"2 46747  53.0559 205.4687 0001798  76.9802 283.1387 15.06400662 70926","SITE":"AFETR"},{"RCS_SIZE":"LARGE","MEAN_MOTION_DDOT":"0.0000000000000","RA_OF_ASC_NODE":"205.7513","PERIOD":"95.592","TIME_SYSTEM":"UTC","GP_ID":"195053805","DECAY_DATE":null,"PERIAPSIS":"545.887","LAUNCH_DATE":"2020-10-24","REV_AT_EPOCH":"7091","EPHEMERIS_TYPE":"0","TLE_LINE1":"1 46748U 20074K   22031.83551012  .00001810  00000-0  14038-3 0  9994","APOAPSIS":"548.524","BSTAR":"0.00014038000000","SEMIMAJOR_AXIS":"6925.341","REF_FRAME":"TEME","SITE":"AFETR","TLE_LINE2":"2 46748  53.0530 205.7513 0001904  79.6545 280.4659 15.06402510 70915","ARG_OF_PERICENTER":"79.6545","OBJECT_ID":"2020-074K","CLASSIFICATION_TYPE":"U","FILE":"3288814","ELEMENT_SET_NO":"999","MEAN_ANOMALY":"280.4659","ECCENTRICITY":"0.00019040","MEAN_MOTION":"15.06402510","MEAN_MOTION_DOT":"0.00001810","EPOCH":"2022-01-31T20:03:08.074368","MEAN_ELEMENT_THEORY":"SGP4","INCLINATION":"53.0530","OBJECT_TYPE":"PAYLOAD","COUNTRY_CODE":"US","NORAD_CAT_ID":"46748","CENTER_NAME":"EARTH","OBJECT_NAME":"STARLINK-1910"},{"NORAD_CAT_ID":"46749","CENTER_NAME":"EARTH","OBJECT_NAME":"STARLINK-1911","OBJECT_TYPE":"PAYLOAD","COUNTRY_CODE":"US","MEAN_MOTION_DOT":"-0.00000126","EPOCH":"2022-01-31T20:13:44.719680","INCLINATION":"53.0547","MEAN_ELEMENT_THEORY":"SGP4","ECCENTRICITY":"0.00018060","MEAN_MOTION":"15.06402386","MEAN_ANOMALY":"279.4445","CLASSIFICATION_TYPE":"U","FILE":"3288814","ELEMENT_SET_NO":"999","ARG_OF_PERICENTER":"80.6748","OBJECT_ID":"2020-074L","REF_FRAME":"TEME","SITE":"AFETR","TLE_LINE2":"2 46749  53.0547 205.7176 0001806  80.6748 279.4445 15.06402386 70919","SEMIMAJOR_AXIS":"6925.341","APOAPSIS":"548.457","BSTAR":"0.00001043800000","REV_AT_EPOCH":"7091","EPHEMERIS_TYPE":"0","TLE_LINE1":"1 46749U 20074L   22031.84287870 -.00000126  00000-0  10438-4 0  9995","PERIAPSIS":"545.956","LAUNCH_DATE":"2020-10-24","GP_ID":"195053055","DECAY_DATE":null,"TIME_SYSTEM":"UTC","PERIOD":"95.592","MEAN_MOTION_DDOT":"0.0000000000000","RA_OF_ASC_NODE":"205.7176","RCS_SIZE":"LARGE"},{"ELEMENT_SET_NO":"999","FILE":"3288814","CLASSIFICATION_TYPE":"U","MEAN_ANOMALY":"273.7493","TLE_LINE2":"2 46751  53.0539 205.7334 0001904  86.3714 273.7493 15.06399705 70914","SITE":"AFETR","REF_FRAME":"TEME","OBJECT_ID":"2020-074N","ARG_OF_PERICENTER":"86.3714","COUNTRY_CODE":"US","OBJECT_TYPE":"PAYLOAD","OBJECT_NAME":"STARLINK-1920","CENTER_NAME":"EARTH","NORAD_CAT_ID":"46751","MEAN_MOTION":"15.06399705","ECCENTRICITY":"0.00019040","INCLINATION":"53.0539","MEAN_ELEMENT_THEORY":"SGP4","EPOCH":"2022-01-31T20:08:26.211264","MEAN_MOTION_DOT":"0.00001568","TIME_SYSTEM":"UTC","PERIOD":"95.592","DECAY_DATE":null,"GP_ID":"195052806","RCS_SIZE":"LARGE","RA_OF_ASC_NODE":"205.7334","MEAN_MOTION_DDOT":"0.0000000000000","BSTAR":"0.00012414000000","APOAPSIS":"548.533","SEMIMAJOR_AXIS":"6925.349","LAUNCH_DATE":"2020-10-24","PERIAPSIS":"545.896","TLE_LINE1":"1 46751U 20074N   22031.83919226  .00001568  00000-0  12414-3 0  9999","EPHEMERIS_TYPE":"0","REV_AT_EPOCH":"7091"},{"TLE_LINE2":"2 46752  53.0530 205.6793 0001931  73.6054 286.5147 15.06399687 70917","SITE":"AFETR","REF_FRAME":"TEME","OBJECT_ID":"2020-074P","ARG_OF_PERICENTER":"73.6054","ELEMENT_SET_NO":"999","FILE":"3288814","CLASSIFICATION_TYPE":"U","MEAN_ANOMALY":"286.5147","MEAN_MOTION":"15.06399687","ECCENTRICITY":"0.00019310","INCLINATION":"53.0530","MEAN_ELEMENT_THEORY":"SGP4","EPOCH":"2022-01-31T20:24:21.549888","MEAN_MOTION_DOT":"0.00001757","COUNTRY_CODE":"US","OBJECT_TYPE":"PAYLOAD","OBJECT_NAME":"STARLINK-1921","CENTER_NAME":"EARTH","NORAD_CAT_ID":"46752","RCS_SIZE":"LARGE","RA_OF_ASC_NODE":"205.6793","MEAN_MOTION_DDOT":"0.0000000000000","PERIOD":"95.592","TIME_SYSTEM":"UTC","DECAY_DATE":null,"GP_ID":"195054057","LAUNCH_DATE":"2020-10-24","PERIAPSIS":"545.877","TLE_LINE1":"1 46752U 20074P   22031.85024942  .00001757  00000-0  13682-3 0  9992","EPHEMERIS_TYPE":"0","REV_AT_EPOCH":"7091","BSTAR":"0.00013682000000","APOAPSIS":"548.552","SEMIMAJOR_AXIS":"6925.350"},{"MEAN_ANOMALY":"270.9018","CLASSIFICATION_TYPE":"U","FILE":"3288814","ELEMENT_SET_NO":"999","ARG_OF_PERICENTER":"89.2167","OBJECT_ID":"2020-074Q","REF_FRAME":"TEME","SITE":"AFETR","TLE_LINE2":"2 46753  53.0539 205.5246 0001711  89.2167 270.9018 15.06403761 70927","NORAD_CAT_ID":"46753","CENTER_NAME":"EARTH","OBJECT_NAME":"STARLINK-1922","OBJECT_TYPE":"PAYLOAD","COUNTRY_CODE":"US","MEAN_MOTION_DOT":"0.00000809","EPOCH":"2022-01-31T21:12:07.923456","INCLINATION":"53.0539","MEAN_ELEMENT_THEORY":"SGP4","ECCENTRICITY":"0.00017110","MEAN_MOTION":"15.06403761","GP_ID":"195054305","DECAY_DATE":null,"TIME_SYSTEM":"UTC","PERIOD":"95.592","MEAN_MOTION_DDOT":"0.0000000000000","RA_OF_ASC_NODE":"205.5246","RCS_SIZE":"LARGE","SEMIMAJOR_AXIS":"6925.337","APOAPSIS":"548.387","BSTAR":"0.00007320000000","REV_AT_EPOCH":"7092","EPHEMERIS_TYPE":"0","TLE_LINE1":"1 46753U 20074Q   22031.88342504  .00000809  00000-0  73200-4 0  9993","PERIAPSIS":"546.017","LAUNCH_DATE":"2020-10-24"},{"TLE_LINE1":"1 46754U 20074R   22031.82445285  .00000480  00000-0  51153-4 0  9996","EPHEMERIS_TYPE":"0","REV_AT_EPOCH":"7091","LAUNCH_DATE":"2020-10-24","PERIAPSIS":"545.826","SEMIMAJOR_AXIS":"6925.335","BSTAR":"0.00005115300000","APOAPSIS":"548.574","RA_OF_ASC_NODE":"205.7909","MEAN_MOTION_DDOT":"0.0000000000000","RCS_SIZE":"LARGE","DECAY_DATE":null,"GP_ID":"195052556","TIME_SYSTEM":"UTC","PERIOD":"95.592","INCLINATION":"53.0534","MEAN_ELEMENT_THEORY":"SGP4","EPOCH":"2022-01-31T19:47:12.726240","MEAN_MOTION_DOT":"0.00000480","MEAN_MOTION":"15.06404292","ECCENTRICITY":"0.00019840","OBJECT_NAME":"STARLINK-1923","CENTER_NAME":"EARTH","NORAD_CAT_ID":"46754","COUNTRY_CODE":"US","OBJECT_TYPE":"PAYLOAD","OBJECT_ID":"2020-074R","ARG_OF_PERICENTER":"84.6712","TLE_LINE2":"2 46754  53.0534 205.7909 0001984  84.6712 275.4504 15.06404292 70917","SITE":"AFETR","REF_FRAME":"TEME","MEAN_ANOMALY":"275.4504","ELEMENT_SET_NO":"999","FILE":"3288814","CLASSIFICATION_TYPE":"U"},{"SEMIMAJOR_AXIS":"6925.351","BSTAR":"0.00002459900000","APOAPSIS":"548.548","EPHEMERIS_TYPE":"0","TLE_LINE1":"1 46755U 20074S   22031.82952412  .00000085  00000-0  24599-4 0  9997","REV_AT_EPOCH":"7084","LAUNCH_DATE":"2020-10-24","PERIAPSIS":"545.885","DECAY_DATE":null,"GP_ID":"195053306","TIME_SYSTEM":"UTC","PERIOD":"95.592","RA_OF_ASC_NODE":"210.7723","MEAN_MOTION_DDOT":"0.0000000000000","RCS_SIZE":"LARGE","CENTER_NAME":"EARTH","OBJECT_NAME":"STARLINK-1924","NORAD_CAT_ID":"46755","OBJECT_TYPE":"PAYLOAD","COUNTRY_CODE":"US","EPOCH":"2022-01-31T19:54:30.883968","MEAN_ELEMENT_THEORY":"SGP4","INCLINATION":"53.0534","MEAN_MOTION_DOT":"0.00000085","MEAN_MOTION":"15.06399051","ECCENTRICITY":"0.00019230","MEAN_ANOMALY":"281.3384","ELEMENT_SET_NO":"999","CLASSIFICATION_TYPE":"U","FILE":"3288814","ARG_OF_PERICENTER":"78.7821","OBJECT_ID":"2020-074S","SITE":"AFETR","TLE_LINE2":"2 46755  53.0534 210.7723 0001923  78.7821 281.3384 15.06399051 70846","REF_FRAME":"TEME"},{"RA_OF_ASC_NODE":"211.1083","MEAN_MOTION_DDOT":"0.0000000000000","RCS_SIZE":"LARGE","DECAY_DATE":null,"GP_ID":"195053558","TIME_SYSTEM":"UTC","PERIOD":"95.592","EPHEMERIS_TYPE":"0","TLE_LINE1":"1 46756U 20074T   22031.75486246 -.00000039  00000-0  16300-4 0  9998","REV_AT_EPOCH":"7083","LAUNCH_DATE":"2020-10-24","PERIAPSIS":"546.134","SEMIMAJOR_AXIS":"6925.358","BSTAR":"0.00001630000000","APOAPSIS":"548.313","ARG_OF_PERICENTER":"84.7442","OBJECT_ID":"2020-074T","SITE":"AFETR","TLE_LINE2":"2 46756  53.0552 211.1083 0001573  84.7442 275.3727 15.06396833 70836","REF_FRAME":"TEME","MEAN_ANOMALY":"275.3727","ELEMENT_SET_NO":"999","CLASSIFICATION_TYPE":"U","FILE":"3288814","EPOCH":"2022-01-31T18:07:00.116544","MEAN_ELEMENT_THEORY":"SGP4","INCLINATION":"53.0552","MEAN_MOTION_DOT":"-0.00000039","MEAN_MOTION":"15.06396833","ECCENTRICITY":"0.00015730","CENTER_NAME":"EARTH","OBJECT_NAME":"STARLINK-1925","NORAD_CAT_ID":"46756","OBJECT_TYPE":"PAYLOAD","COUNTRY_CODE":"US"},{"ARG_OF_PERICENTER":"80.7757","OBJECT_ID":"2020-074U","REF_FRAME":"TEME","SITE":"AFETR","TLE_LINE2":"2 46757  53.0542 210.3952 0001763  80.7757 279.3431 15.06402272 70851","MEAN_ANOMALY":"279.3431","CLASSIFICATION_TYPE":"U","FILE":"3288814","ELEMENT_SET_NO":"999","MEAN_MOTION_DOT":"0.00001956","EPOCH":"2022-01-31T22:00:32.055552","INCLINATION":"53.0542","MEAN_ELEMENT_THEORY":"SGP4","ECCENTRICITY":"0.00017630","MEAN_MOTION":"15.06402272","NORAD_CAT_ID":"46757","CENTER_NAME":"EARTH","OBJECT_NAME":"STARLINK-1926","OBJECT_TYPE":"PAYLOAD","COUNTRY_CODE":"US","MEAN_MOTION_DDOT":"0.0000000000000","RA_OF_ASC_NODE":"210.3952","RCS_SIZE":"LARGE","GP_ID":"195053806","DECAY_DATE":null,"TIME_SYSTEM":"UTC","PERIOD":"95.592","REV_AT_EPOCH":"7085","EPHEMERIS_TYPE":"0","TLE_LINE1":"1 46757U 20074U   22031.91703768  .00001956  00000-0  15016-3 0  9998","PERIAPSIS":"545.986","LAUNCH_DATE":"2020-10-24","SEMIMAJOR_AXIS":"6925.342","APOAPSIS":"548.428","BSTAR":"0.00015016000000"}];
